{
  "type": "FeatureCollection",
  "features": [
    {
      "type": "Feature",
      "properties": {
        "norad_id": 35045,
        "name": "COSMOS 2251 DEB",
        "group": "cosmos-2251-debris",
        "lat": -43.57604304219364,
        "lon": 10.093090793906912,
        "alt_km": 807.752470783741,
        "timestamp": "2025-12-27T17:24:57.803677+00:00",
        "meta_object_name": "COSMOS 2251 DEB",
        "meta_object_id": "1993-036AHJ",
        "meta_epoch": "2025-12-24T19:20:26.125152",
        "meta_mean_motion": 14.0041252,
        "meta_eccentricity": 0.01839955,
        "meta_inclination": 73.7191,
        "meta_ra_of_asc_node": 31.3925,
        "meta_arg_of_pericenter": 271.7742,
        "meta_mean_anomaly": 86.2325,
        "meta_ephemeris_type": 0,
        "meta_classification_type": "U",
        "meta_norad_cat_id": 35045,
        "meta_element_set_no": 999,
        "meta_rev_at_epoch": 84812,
        "meta_bstar": 0.0006276669,
        "meta_mean_motion_dot": 1.049e-05,
        "meta_mean_motion_ddot": 0,
        "tle_line1": "1 35045U 93036AHJ 25358.80585793  .00001049  00000+0  62767-3 0  9990",
        "tle_line2": "2 35045  73.7191  31.3925 0183995 271.7742  86.2325 14.00412520848123"
      },
      "geometry": {
        "type": "Point",
        "coordinates": [
          10.093090793906912,
          -43.57604304219364
        ]
      }
    },
    {
      "type": "Feature",
      "properties": {
        "norad_id": 35060,
        "name": "COSMOS 2251 DEB",
        "group": "cosmos-2251-debris",
        "lat": -71.11053813193952,
        "lon": 159.78805026757985,
        "alt_km": 747.5383509235617,
        "timestamp": "2025-12-27T17:24:57.803687+00:00",
        "meta_object_name": "COSMOS 2251 DEB",
        "meta_object_id": "1993-036AHP",
        "meta_epoch": "2025-12-27T07:47:30.006240",
        "meta_mean_motion": 14.41629901,
        "meta_eccentricity": 0.001872,
        "meta_inclination": 74.0355,
        "meta_ra_of_asc_node": 217.3137,
        "meta_arg_of_pericenter": 301.492,
        "meta_mean_anomaly": 58.4406,
        "meta_ephemeris_type": 0,
        "meta_classification_type": "U",
        "meta_norad_cat_id": 35060,
        "meta_element_set_no": 999,
        "meta_rev_at_epoch": 87452,
        "meta_bstar": 0.00030369,
        "meta_mean_motion_dot": 9.64e-06,
        "meta_mean_motion_ddot": 0,
        "tle_line1": "1 35060U 93036AHP 25361.32465285  .00000964  00000+0  30369-3 0  9999",
        "tle_line2": "2 35060  74.0355 217.3137 0018720 301.4920  58.4406 14.41629901874521"
      },
      "geometry": {
        "type": "Point",
        "coordinates": [
          159.78805026757985,
          -71.11053813193952
        ]
      }
    },
    {
      "type": "Feature",
      "properties": {
        "norad_id": 35061,
        "name": "COSMOS 2251 DEB",
        "group": "cosmos-2251-debris",
        "lat": 37.228531792637924,
        "lon": 84.22749725051048,
        "alt_km": 677.376250753985,
        "timestamp": "2025-12-27T17:24:57.803697+00:00",
        "meta_object_name": "COSMOS 2251 DEB",
        "meta_object_id": "1993-036AHQ",
        "meta_epoch": "2025-12-27T11:52:19.983072",
        "meta_mean_motion": 14.67955039,
        "meta_eccentricity": 0.0039821,
        "meta_inclination": 74.0457,
        "meta_ra_of_asc_node": 277.2278,
        "meta_arg_of_pericenter": 24.0903,
        "meta_mean_anomaly": 336.2118,
        "meta_ephemeris_type": 0,
        "meta_classification_type": "U",
        "meta_norad_cat_id": 35061,
        "meta_element_set_no": 999,
        "meta_rev_at_epoch": 88791,
        "meta_bstar": 0.00086767,
        "meta_mean_motion_dot": 4.999e-05,
        "meta_mean_motion_ddot": 0,
        "tle_line1": "1 35061U 93036AHQ 25361.49467573  .00004999  00000+0  86767-3 0  9995",
        "tle_line2": "2 35061  74.0457 277.2278 0039821  24.0903 336.2118 14.67955039887916"
      },
      "geometry": {
        "type": "Point",
        "coordinates": [
          84.22749725051048,
          37.228531792637924
        ]
      }
    },
    {
      "type": "Feature",
      "properties": {
        "norad_id": 35062,
        "name": "COSMOS 2251 DEB",
        "group": "cosmos-2251-debris",
        "lat": -60.02879392435338,
        "lon": 36.70629220163794,
        "alt_km": 873.8981319100221,
        "timestamp": "2025-12-27T17:24:57.803707+00:00",
        "meta_object_name": "COSMOS 2251 DEB",
        "meta_object_id": "1993-036AHR",
        "meta_epoch": "2025-12-27T04:13:13.663776",
        "meta_mean_motion": 14.23044847,
        "meta_eccentricity": 0.01258352,
        "meta_inclination": 74.0787,
        "meta_ra_of_asc_node": 67.3599,
        "meta_arg_of_pericenter": 62.5897,
        "meta_mean_anomaly": 298.7984,
        "meta_ephemeris_type": 0,
        "meta_classification_type": "U",
        "meta_norad_cat_id": 35062,
        "meta_element_set_no": 999,
        "meta_rev_at_epoch": 85704,
        "meta_bstar": 0.0017191343,
        "meta_mean_motion_dot": 4.182e-05,
        "meta_mean_motion_ddot": 0,
        "tle_line1": "1 35062U 93036AHR 25361.17585259  .00004182  00000+0  17191-2 0  9991",
        "tle_line2": "2 35062  74.0787  67.3599 0125835  62.5897 298.7984 14.23044847857049"
      },
      "geometry": {
        "type": "Point",
        "coordinates": [
          36.70629220163794,
          -60.02879392435338
        ]
      }
    },
    {
      "type": "Feature",
      "properties": {
        "norad_id": 35065,
        "name": "COSMOS 2251 DEB",
        "group": "cosmos-2251-debris",
        "lat": 46.860517704964266,
        "lon": -31.448721324661943,
        "alt_km": 748.5147975426562,
        "timestamp": "2025-12-27T17:24:57.803717+00:00",
        "meta_object_name": "COSMOS 2251 DEB",
        "meta_object_id": "1993-036AHU",
        "meta_epoch": "2025-12-26T10:55:13.836864",
        "meta_mean_motion": 14.45764248,
        "meta_eccentricity": 0.0020358,
        "meta_inclination": 74.0178,
        "meta_ra_of_asc_node": 168.7315,
        "meta_arg_of_pericenter": 291.8587,
        "meta_mean_anomaly": 68.0405,
        "meta_ephemeris_type": 0,
        "meta_classification_type": "U",
        "meta_norad_cat_id": 35065,
        "meta_element_set_no": 999,
        "meta_rev_at_epoch": 68549,
        "meta_bstar": 0.00042895,
        "meta_mean_motion_dot": 1.498e-05,
        "meta_mean_motion_ddot": 0,
        "tle_line1": "1 35065U 93036AHU 25360.45502126  .00001498  00000+0  42895-3 0  9993",
        "tle_line2": "2 35065  74.0178 168.7315 0020358 291.8587  68.0405 14.45764248685497"
      },
      "geometry": {
        "type": "Point",
        "coordinates": [
          -31.448721324661943,
          46.860517704964266
        ]
      }
    },
    {
      "type": "Feature",
      "properties": {
        "norad_id": 35071,
        "name": "COSMOS 2251 DEB",
        "group": "cosmos-2251-debris",
        "lat": -45.810251984295924,
        "lon": -20.138756462134133,
        "alt_km": 607.9240120769018,
        "timestamp": "2025-12-27T17:24:57.803727+00:00",
        "meta_object_name": "COSMOS 2251 DEB",
        "meta_object_id": "1993-036AJA",
        "meta_epoch": "2025-12-27T02:02:07.791360",
        "meta_mean_motion": 15.0373425,
        "meta_eccentricity": 0.00685362,
        "meta_inclination": 73.9327,
        "meta_ra_of_asc_node": 143.9325,
        "meta_arg_of_pericenter": 36.008,
        "meta_mean_anomaly": 324.5696,
        "meta_ephemeris_type": 0,
        "meta_classification_type": "U",
        "meta_norad_cat_id": 35071,
        "meta_element_set_no": 999,
        "meta_rev_at_epoch": 67752,
        "meta_bstar": 0.00090039747,
        "meta_mean_motion_dot": 0.00012992,
        "meta_mean_motion_ddot": 0,
        "tle_line1": "1 35071U 93036AJA 25361.08481240  .00012992  00000+0  90040-3 0  9999",
        "tle_line2": "2 35071  73.9327 143.9325 0068536  36.0080 324.5696 15.03734250677523"
      },
      "geometry": {
        "type": "Point",
        "coordinates": [
          -20.138756462134133,
          -45.810251984295924
        ]
      }
    },
    {
      "type": "Feature",
      "properties": {
        "norad_id": 35073,
        "name": "COSMOS 2251 DEB",
        "group": "cosmos-2251-debris",
        "lat": -23.7760922409814,
        "lon": 127.26096879771418,
        "alt_km": 574.1524260516499,
        "timestamp": "2025-12-27T17:24:57.803738+00:00",
        "meta_object_name": "COSMOS 2251 DEB",
        "meta_object_id": "1993-036AJC",
        "meta_epoch": "2025-12-26T13:19:39.449280",
        "meta_mean_motion": 15.01663707,
        "meta_eccentricity": 0.0011423,
        "meta_inclination": 74.0005,
        "meta_ra_of_asc_node": 302.3878,
        "meta_arg_of_pericenter": 45.8819,
        "meta_mean_anomaly": 314.3306,
        "meta_ephemeris_type": 0,
        "meta_classification_type": "U",
        "meta_norad_cat_id": 35073,
        "meta_element_set_no": 999,
        "meta_rev_at_epoch": 67686,
        "meta_bstar": 0.0034127,
        "meta_mean_motion_dot": 0.00044647,
        "meta_mean_motion_ddot": 0,
        "tle_line1": "1 35073U 93036AJC 25360.55531770  .00044647  00000+0  34127-2 0  9991",
        "tle_line2": "2 35073  74.0005 302.3878 0011423  45.8819 314.3306 15.01663707676862"
      },
      "geometry": {
        "type": "Point",
        "coordinates": [
          127.26096879771418,
          -23.7760922409814
        ]
      }
    }
  ]
}